{
    "links": {
        "self": "http://www.neowsapp.com/rest/v1/neo/54051324?api_key=iIulBulltgU6a56xZRHN4H3l9WmuAYTsLGpBGhQ2"
    },
    "id": "54051324",
    "neo_reference_id": "54051324",
    "name": "(2020 QC4)",
    "designation": "2020 QC4",
    "nasa_jpl_url": "http://ssd.jpl.nasa.gov/sbdb.cgi?sstr=54051324",
    "absolute_magnitude_h": 24.924,
    "estimated_diameter": {
        "kilometers": {
            "estimated_diameter_min": 0.0275267524,
            "estimated_diameter_max": 0.0615516896
        },
        "meters": {
            "estimated_diameter_min": 27.5267524099,
            "estimated_diameter_max": 61.5516895882
        },
        "miles": {
            "estimated_diameter_min": 0.0171043257,
            "estimated_diameter_max": 0.0382464349
        },
        "feet": {
            "estimated_diameter_min": 90.3108703764,
            "estimated_diameter_max": 201.9412452687
        }
    },
    "is_potentially_hazardous_asteroid": false,
    "close_approach_data": [
        {
            "close_approach_date": "2020-08-22",
            "close_approach_date_full": "2020-Aug-22 14:40",
            "epoch_date_close_approach": 1598107200000,
            "relative_velocity": {
                "kilometers_per_second": "1.3653044259",
                "kilometers_per_hour": "4915.0959334045",
                "miles_per_hour": "3054.0494703979"
            },
            "miss_distance": {
                "astronomical": "0.1731435616",
                "lunar": "67.3528454624",
                "kilometers": "25901908.019573792",
                "miles": "16094699.3222386496"
            },
            "orbiting_body": "Earth"
        },
        {
            "close_approach_date": "2021-01-02",
            "close_approach_date_full": "2021-Jan-02 13:17",
            "epoch_date_close_approach": 1609593420000,
            "relative_velocity": {
                "kilometers_per_second": "4.2660693718",
                "kilometers_per_hour": "15357.8497385654",
                "miles_per_hour": "9542.7705778325"
            },
            "miss_distance": {
                "astronomical": "0.0704504797",
                "lunar": "27.4052366033",
                "kilometers": "10539241.703598239",
                "miles": "6548781.1236001382"
            },
            "orbiting_body": "Mars"
        }
    ],
    "orbital_data": {
        "orbit_id": "1",
        "orbit_determination_date": "2020-08-22 10:42:06",
        "first_observation_date": "2020-08-18",
        "last_observation_date": "2020-08-22",
        "data_arc_in_days": 4,
        "observations_used": 12,
        "orbit_uncertainty": "9",
        "minimum_orbit_intersection": ".172847",
        "jupiter_tisserand_invariant": "4.447",
        "epoch_osculation": "2459080.5",
        "eccentricity": ".2346813448867734",
        "semi_major_axis": "1.533494225885895",
        "inclination": "3.433352401428635",
        "ascending_node_longitude": "215.211329474622",
        "orbital_period": "693.6200595113683",
        "perihelion_distance": "1.173611738578892",
        "perihelion_argument": "116.4527964397384",
        "aphelion_distance": "1.893376713192899",
        "perihelion_time": "2459086.841490057961",
        "mean_anomaly": "356.7086643623395",
        "mean_motion": ".5190161314734867",
        "equinox": "J2000",
        "orbit_class": {
            "orbit_class_type": "AMO",
            "orbit_class_description": "Near-Earth asteroid orbits similar to that of 1221 Amor",
            "orbit_class_range": "1.017 AU < q (perihelion) < 1.3 AU"
        }
    },
    "is_sentry_object": false
}